[{"OBJECT_NAME":"COSMOS 1408 DEB","OBJECT_ID":"1982-092RU","EPOCH":"2026-03-29T00:54:20.738592","MEAN_MOTION":15.46973841,"ECCENTRICITY":0.0015264,"INCLINATION":82.5626,"RA_OF_ASC_NODE":309.4552,"ARG_OF_PERICENTER":180.9336,"MEAN_ANOMALY":179.1888,"EPHEMERIS_TYPE":0,"CLASSIFICATION_TYPE":"U","NORAD_CAT_ID":50032,"ELEMENT_SET_NO":999,"REV_AT_EPOCH":24246,"BSTAR":0.0001084,"MEAN_MOTION_DOT":5.531e-5,"MEAN_MOTION_DDOT":0},{"OBJECT_NAME":"COSMOS 1408 DEB","OBJECT_ID":"1982-092SW","EPOCH":"2026-03-29T02:40:36.016608","MEAN_MOTION":15.73151162,"ECCENTRICITY":0.0013927,"INCLINATION":82.6108,"RA_OF_ASC_NODE":317.2972,"ARG_OF_PERICENTER":62.2887,"MEAN_ANOMALY":297.9787,"EPHEMERIS_TYPE":0,"CLASSIFICATION_TYPE":"U","NORAD_CAT_ID":50058,"ELEMENT_SET_NO":999,"REV_AT_EPOCH":24471,"BSTAR":0.00038012,"MEAN_MOTION_DOT":0.00052601,"MEAN_MOTION_DDOT":0},{"OBJECT_NAME":"COSMOS 1408 DEB","OBJECT_ID":"1982-092ADS","EPOCH":"2026-03-29T00:49:39.461664","MEAN_MOTION":15.40188611,"ECCENTRICITY":0.0110829,"INCLINATION":82.1914,"RA_OF_ASC_NODE":104.1444,"ARG_OF_PERICENTER":185.9846,"MEAN_ANOMALY":174.0085,"EPHEMERIS_TYPE":0,"CLASSIFICATION_TYPE":"U","NORAD_CAT_ID":50404,"ELEMENT_SET_NO":999,"REV_AT_EPOCH":22814,"BSTAR":0.0036616,"MEAN_MOTION_DOT":0.00186269,"MEAN_MOTION_DDOT":0},{"OBJECT_NAME":"COSMOS 1408 DEB","OBJECT_ID":"1982-092ALR","EPOCH":"2026-03-29T02:12:37.740672","MEAN_MOTION":15.63787077,"ECCENTRICITY":0.0025166,"INCLINATION":82.5698,"RA_OF_ASC_NODE":322.8879,"ARG_OF_PERICENTER":114.8172,"MEAN_ANOMALY":245.5708,"EPHEMERIS_TYPE":0,"CLASSIFICATION_TYPE":"U","NORAD_CAT_ID":50621,"ELEMENT_SET_NO":999,"REV_AT_EPOCH":23908,"BSTAR":0.0004019,"MEAN_MOTION_DOT":0.00038321,"MEAN_MOTION_DDOT":0}]
